QIANFAN-10              
1 60388U 24140K   25310.69329209  .00000031  00000+0  29663-4 0  9990
2 60388  88.9742 302.4165 0012772 281.6889  78.2829 13.50976786 62597
QIANFAN-11              
1 60389U 24140L   25310.73029432  .00000049  00000+0  56833-4 0  9999
2 60389  88.9669 303.0269 0012732 307.0735  52.9251 13.50973008 62252
QIANFAN-12              
1 60390U 24140M   25310.75081330  .00000048  00000+0  55409-4 0  9995
2 60390  88.9712 303.0524 0011768 316.7549  43.2678 13.50973443 62388
QIANFAN-13              
1 60391U 24140N   25310.72202450  .00000054  00000+0  65582-4 0  9991
2 60391  88.9724 303.1509 0011667 319.9109  40.1180 13.50973828 62405
QIANFAN-14              
1 60392U 24140P   25310.74660985  .00000035  00000+0  36395-4 0  9994
2 60392  88.9703 303.0536 0015321 317.9430  42.0544 13.50973805 62419
QIANFAN-15              
1 60393U 24140Q   25310.75485402  .00000066  00000+0  83467-4 0  9991
2 60393  88.9727 303.0007 0010787 304.5246  55.4886 13.50972149 62403
QIANFAN-16              
1 60394U 24140R   25310.74267168  .00000041  00000+0  44651-4 0  9993
2 60394  88.9730 303.1211 0013387 323.0892  36.9336 13.50972810 62317
QIANFAN-17              
1 60395U 24140S   25310.73841301  .00000041  00000+0  44760-4 0  9991
2 60395  88.9741 303.1632 0013596 316.0701  43.9368 13.50971478 63278
QIANFAN-18              
1 60396U 24140T   25310.71781779  .00000049  00000+0  57251-4 0  9999
2 60396  88.9733 302.7015 0012527 296.9881  62.9990 13.50971528 62668
STARLINK-11228 [DTC]    
1 60398U 24141A   25310.36823884  .00003406  00000+0  32943-4 0  9998
2 60398  53.1588 334.2118 0001119  98.6362 261.4783 15.69725907 72322
STARLINK-11182 [DTC]    
1 60399U 24141B   25310.48087028  .00001823  00000+0  19898-4 0  9999
2 60399  53.1597 333.4846 0001425  68.0557 292.0612 15.69718235 72393
STARLINK-11234 [DTC]    
1 60400U 24141C   25310.47596735  .00000535  00000+0  92772-5 0  9993
2 60400  53.1592 333.4518 0001297  87.5393 272.5774 15.69716838 72342
STARLINK-11232 [DTC]    
1 60401U 24141D   25310.47106554  .00001730  00000+0  19146-4 0  9991
2 60401  53.1582 333.4198 0001310  72.0337 288.0824 15.69702905 72392
STARLINK-11139 [DTC]    
1 60402U 24141E   25310.33882007  .00000384  00000+0  80295-5 0  9999
2 60402  53.1588 334.0119 0001455 104.6678 255.4501 15.69710217 72372
STARLINK-11158 [DTC]    
1 60403U 24141F   25310.33400426  .00004254  00000+0  39928-4 0  9997
2 60403  53.1590 334.7139 0001546  79.6760 280.4432 15.69728692 72310
STARLINK-11199 [DTC]    
1 60404U 24141G   25310.32911091  .00001515  00000+0  17369-4 0  9994
2 60404  53.1592 334.6800 0001902  83.5195 276.6039 15.69710205 72365
STARLINK-11081 [DTC]    
1 60405U 24141H   25310.32420605  .00000014  00000+0  49744-5 0  9997
2 60405  53.1592 334.6502 0001207  79.3140 280.8013 15.69712774 72313
STARLINK-11150 [DTC]    
1 60406U 24141J   25310.31930177  .00000924  00000+0  12488-4 0  9991
2 60406  53.1591 334.6174 0001466  83.1915 276.9270 15.69711788 72368
STARLINK-11136 [DTC]    
1 60407U 24141K   25310.31439363  .00000806  00000+0  11517-4 0  9994
2 60407  53.1581 334.5838 0001324 103.7260 256.3905 15.69709923 72319
STARLINK-11196 [DTC]    
1 60408U 24141L   25310.30948711  .00000547  00000+0  93731-5 0  9997
2 60408  53.1586 334.5502 0001536  96.7902 263.3290 15.69715120 72368
STARLINK-11174 [DTC]    
1 60409U 24141M   25310.36333970  .00001104  00000+0  13971-4 0  9996
2 60409  53.1590 334.1732 0001440 102.7918 257.3261 15.69719010 72323
STARLINK-11191 [DTC]    
1 60410U 24141N   25310.35843330 -.00000051  00000+0  44378-5 0  9990
2 60410  53.1590 334.1413 0001339  75.4749 284.6417 15.69731050 72375
STARLINK-32244          
1 60411U 24141P   25310.67556522  .00003324  00000+0  12430-3 0  9997
2 60411  53.1591  94.1857 0001244  78.4915 281.6226 15.30201252 70743
STARLINK-32186          
1 60412U 24141Q   25310.67239836  .00000647  00000+0  33980-4 0  9993
2 60412  53.1584  94.1662 0001294  79.9470 280.1676 15.30196802 70687
STARLINK-32178          
1 60413U 24141R   25310.66289947  .00001689  00000+0  69133-4 0  9997
2 60413  53.1577  94.1056 0001414  95.2394 264.8768 15.30197941 70683
STARLINK-32234          
1 60414U 24141S   25310.66922289 -.00001087  00000+0 -24577-4 0  9998
2 60414  53.1596  94.1460 0001256  89.1911 270.9234 15.30194609 70746
STARLINK-32265          
1 60415U 24141T   25310.73138381  .00001504  00000+0  62922-4 0  9997
2 60415  53.1588  93.8224 0001260  91.6372 268.4773 15.30183642 70752
STARLINK-32197          
1 60416U 24141U   25310.73780718  .00002723  00000+0  10403-3 0  9995
2 60416  53.1612  83.8994 0001223  73.3739 286.7396 15.30196270 70831
STARLINK-32255          
1 60417U 24141V   25310.78720124  .00001068  00000+0  48192-4 0  9994
2 60417  53.1587  93.4573 0001263 100.8537 259.2606 15.30189705 70765
STARLINK-32236          
1 60418U 24141W   25310.78295925  .00006052  00000+0  21618-3 0  9992
2 60418  53.1600  93.4318 0000633  77.6724 282.4347 15.30215964 70765
CAPELLA-13 (ACADIA-3)   
1 60419U 24142A   25310.31904184  .00010219  00000+0  11361-2 0  9990
2 60419  53.0053 310.3792 0001367 105.7348 254.3783 14.87669813 67231
ASBM-1                  
1 60422U 24143A   25307.47245123  .00000014  00000+0  00000+0 0  9996
2 60422  62.6827  54.2583 5512407 268.8188  30.9984  1.50421140  8222
ASBM-2                  
1 60423U 24143B   25289.85643494 -.00000002  00000+0  00000+0 0  9999
2 60423  62.6395  54.9927 5498509 268.8463  31.1079  1.50424788  7941
STARLINK-32250          
1 60425U 24144A   25310.75560008  .00003081  00000+0  11616-3 0  9993
2 60425  53.1625  68.4173 0001115  67.8645 292.2474 15.30187393 69582
STARLINK-32226          
1 60426U 24144B   25310.75455176  .00001248  00000+0  54256-4 0  9994
2 60426  53.1615  68.4105 0001197  78.3493 281.7642 15.30192991 70486
STARLINK-32254          
1 60427U 24144C   25310.74188832  .00004386  00000+0  16010-3 0  9997
2 60427  53.1600  68.3297 0001374  93.1060 267.0098 15.30203254 70526
STARLINK-32193          
1 60428U 24144D   25310.75243942  .00000984  00000+0  45354-4 0  9997
2 60428  53.1613  68.3972 0001170  71.8597 288.2531 15.30192413 70524
STARLINK-32242          
1 60429U 24144E   25310.74505190  .00000636  00000+0  33634-4 0  9995
2 60429  53.1608  68.3496 0001301  80.2349 279.8799 15.30178787 70525
STARLINK-32196          
1 60430U 24144F   25310.60808413 -.00001732  00000+0 -46364-4 0  9990
2 60430  53.1603  68.9170 0000859  76.1002 284.0095 15.30208208 70466
STARLINK-32232          
1 60431U 24144G   25310.74927463  .00000965  00000+0  44693-4 0  9991
2 60431  53.1595  68.3781 0001123  84.3393 275.7736 15.30205288 70484
STARLINK-32246          
1 60432U 24144H   25310.47640186  .00001317  00000+0  56584-4 0  9990
2 60432  53.1614  69.5175 0001189  68.0748 292.0379 15.30198121 70440
STARLINK-32183          
1 60433U 24144J   25310.60492307  .00004381  00000+0  15995-3 0  9990
2 60433  53.1600  68.8956 0001085  71.6699 288.4419 15.30199070 70465
STARLINK-32233          
1 60434U 24144K   25310.72605147  .00000829  00000+0  40113-4 0  9996
2 60434  53.1604  68.2315 0001294  85.7165 274.3983 15.30195202 70484
STARLINK-32222          
1 60435U 24144L   25310.66390178  .00002437  00000+0  94385-4 0  9992
2 60435  53.1604  68.5549 0001247  85.0217 275.0926 15.30200346 70476
STARLINK-32229          
1 60436U 24144M   25310.72288688  .00004196  00000+0  15380-3 0  9993
2 60436  53.1607  68.2126 0001319  79.1849 280.9300 15.30180618 70484
STARLINK-32241          
1 60437U 24144N   25310.72183302  .00007210  00000+0  25534-3 0  9993
2 60437  53.1594  68.2067 0004270  67.8051 292.3402 15.30198527 70480
STARLINK-32240          
1 60438U 24144P   25310.71972204  .00003554  00000+0  13205-3 0  9999
2 60438  53.1592  68.1934 0001258  73.1803 286.9336 15.30203705 70524
STARLINK-32231          
1 60439U 24144Q   25310.71233153  .00000950  00000+0  44188-4 0  9995
2 60439  53.1610  68.1416 0000741 115.0270 245.0807 15.30195317 69583
STARLINK-32195          
1 60440U 24144R   25310.71655703  .00002274  00000+0  88916-4 0  9994
2 60440  53.1604  68.1692 0001542  90.4263 269.6914 15.30183657 70488
STARLINK-32177          
1 60441U 24144S   25310.70916640  .00001211  00000+0  53014-4 0  9995
2 60441  53.1616  68.1213 0000892 104.4694 255.6405 15.30195560 70488
STARLINK-32252          
1 60442U 24144T   25310.70283521  .00000517  00000+0  29598-4 0  9999
2 60442  53.1594  68.0810 0001254  91.4189 268.6955 15.30198579 70525
STARLINK-32237          
1 60443U 24144U   25310.77131588  .00002055  00000+0  81482-4 0  9991
2 60443  53.1598  67.8003 0001084 100.8510 259.2612 15.30198354 70498
STARLINK-32249          
1 60444U 24144V   25310.69650248  .00002763  00000+0  10538-3 0  9991
2 60444  53.1609  68.0421 0001086  94.2006 265.9118 15.30201285 70524
STARLINK-32228          
1 60445U 24144W   25310.69967257  .00001200  00000+0  52641-4 0  9990
2 60445  53.1594  68.0629 0000911  92.5991 267.5114 15.30194892 70527
STARLINK-32247          
1 60446U 24144X   25310.69973699  .00001399  00000+0  59347-4 0  9997
2 60446  53.1612  57.9821 0001211  73.1255 286.9879 15.30193726 70665
STARLINK-32101          
1 60447U 24144Y   25310.77025975  .00001543  00000+0  64209-4 0  9996
2 60447  53.1576  67.7935 0001191  97.2871 262.8265 15.30200796 70497
LEGION 3                
1 60452U 24146A   25310.69965221  .00006943  00000+0  37611-3 0  9997
2 60452  44.9992 143.2586 0014504 347.3365  12.7147 15.15207460 68265
LEGION 4                
1 60453U 24146B   25310.76702587  .00001452  00000+0  89838-4 0  9999
2 60453  45.0394 234.5357 0007911 110.8620 249.3107 15.15195706 67122
EOS-08                  
1 60454U 24147A   25310.67313630  .00049992  00000+0  11202-2 0  9997
2 60454  37.3824  20.9427 0002354  42.4732 317.6212 15.42448946 68641
